[{"OBJECT_NAME":"COSMOS 2502","OBJECT_ID":"2014-086A","EPOCH":"2026-03-09T23:20:55.492800","MEAN_MOTION":13.97809057,"ECCENTRICITY":0.0007913,"INCLINATION":67.151,"RA_OF_ASC_NODE":248.8108,"ARG_OF_PERICENTER":280.0758,"MEAN_ANOMALY":79.9434,"EPHEMERIS_TYPE":0,"CLASSIFICATION_TYPE":"U","NORAD_CAT_ID":40358,"ELEMENT_SET_NO":999,"REV_AT_EPOCH":57008,"BSTAR":4.1810399e-5,"MEAN_MOTION_DOT":-1.6e-7,"MEAN_MOTION_DDOT":0},{"OBJECT_NAME":"CZ-4B DEB","OBJECT_ID":"2020-066D","EPOCH":"2026-03-09T06:00:14.862528","MEAN_MOTION":13.92317793,"ECCENTRICITY":0.00212818,"INCLINATION":65.9144,"RA_OF_ASC_NODE":17.0868,"ARG_OF_PERICENTER":53.424,"MEAN_ANOMALY":306.8787,"EPHEMERIS_TYPE":0,"CLASSIFICATION_TYPE":"U","NORAD_CAT_ID":46472,"ELEMENT_SET_NO":999,"REV_AT_EPOCH":27763,"BSTAR":0.0001920861,"MEAN_MOTION_DOT":1.64e-6,"MEAN_MOTION_DDOT":0}]
